location,coordinates,country,lat,long,country_en
Harelbeke,"(3.3093368973972774, 50.844609649999995)",België / Belgique / Belgien,3.309336897397277,50.84460965,Belgium
Col d'Izoard,"(6.7350408, 44.8200267)",France,6.7350408,44.8200267,France
Lavaur,"(1.0230515, 44.6129697)",France,1.0230515,44.6129697,France
Antwerp,"(4.3997081, 51.2211097)",België / Belgique / Belgien,4.3997081,51.2211097,Belgium
Levallois-Perret,"(2.2881683, 48.892956)",France,2.2881683,48.892956,France
Orléans,"(1.9086066, 47.9027336)",France,1.9086066,47.9027336,France
Fontaine-au-Pire,"(3.3747544, 50.1285441)",France,3.3747544,50.1285441,France
Chablis,"(3.8001657, 47.8152073)",France,3.8001657,47.8152073,France
Stuttgart,"(9.1800132, 48.7784485)",Deutschland,9.1800132,48.7784485,Germany
Saint-Orens-de-Gameville,"(1.5339526, 43.5519847)",France,1.5339526,43.5519847,France
Jonzac,"(-0.4320984, 45.4454469)",France,-0.4320984,45.4454469,France
Leiden,"(4.4811088666204295, 52.1518157)",Nederland,4.4811088666204295,52.1518157,Netherlands
Les Échelles,"(5.7545566, 45.4358859)",France,5.7545566,45.4358859,France
Le Revard,"(5.9772358, 45.6803934)",France,5.9772358,45.6803934,France
La Toussuire,"(6.2626689, 45.2557745)",France,6.2626689,45.2557745,France
Manosque,"(5.7826657, 43.8338026)",France,5.7826657,43.8338026,France
Leuven,"(4.7011675, 50.879202)",België / Belgique / Belgien,4.7011675,50.879202,Belgium
Cambo-les-Bains,"(-1.3994687, 43.3609139)",France,-1.3994687,43.3609139,France
Andorra la Vella,"(1.5212467, 42.5069391)",Andorra,1.5212467,42.5069391,Andorra
Saint-Valery-en-Caux,"(0.7106831, 49.8597004)",France,0.7106831,49.8597004,France
Jaca,"(-0.549372, 42.5692515)",España,-0.549372,42.5692515,Spain
Saint-Maixent-l'École,"(-0.2019344, 46.4096855)",France,-0.2019344,46.4096855,France
La Grande-Motte,,France,,,France
Enniscorthy,,Éire / Ireland,,,Ireland
Belfort/Ballon d’Alsace,,France,,,France
Sestrières,,Italia,,,Italy
Melun,,France,,,France
Gérardmer,,France,,,France
Libourne,,France,,,France
Domaine du Rouret,,,,,
Cérilly,,France,,,France
Deauville,"(0.0752778, 49.36)",France,0.0752778,49.36,France
Brive-la-Gaillarde,"(1.5332389, 45.1584982)",France,1.5332389,45.1584982,France
Calvi,"(8.759269083333335, 42.5497676)",France,8.759269083333335,42.5497676,France
Mouscron,"(3.2139093, 50.7433351)",België / Belgique / Belgien,3.2139093,50.7433351,Belgium
Le Touquet-Paris-Plage,"(1.5909325, 50.5211202)",France,1.5909325,50.5211202,France
Joinville,"(5.1377537, 48.4433253)",France,5.1377537,48.4433253,France
Péronne,"(2.9321899, 49.9289578)",France,2.9321899,49.9289578,France
Neufchâtel-en-Bray,"(1.4421413, 49.7350035)",France,1.4421413,49.7350035,France
Saint-Martin-de-Landelles,"(-1.1803052176013185, 48.5527665)",France,-1.1803052176013185,48.5527665,France
Pforzheim,"(8.7029532, 48.8908846)",Deutschland,8.7029532,48.8908846,Germany
La Toussuire - Les Sybelles,"(6.254302998917014, 45.2637202)",France,6.254302998917014,45.2637202,France
Lannemezan,"(0.384241, 43.1252298)",France,0.384241,43.1252298,France
Lamballe,"(-2.516502292079859, 48.46244615)",France,-2.516502292079859,48.46244615,France
Tarbes,"(0.0781021, 43.232858)",France,0.0781021,43.232858,France
Tours,"(0.6889268, 47.3900474)",France,0.6889268,47.3900474,France
Muret,"(1.3262332, 43.4599858)",France,1.3262332,43.4599858,France
Orthez,"(-0.7738363, 43.4874963)",France,-0.7738363,43.4874963,France
Nanterre,"(2.2071267, 48.8924273)",France,2.2071267,48.8924273,France
Fontainebleau,"(2.7015872, 48.4049375)",France,2.7015872,48.4049375,France
Issoudun,"(1.9889131, 46.9477826)",France,1.9889131,46.9477826,France
Arlon,"(5.8167711, 49.6834601)",België / Belgique / Belgien,5.8167711,49.6834601,Belgium
Sarran,"(1.9382743, 45.4097306)",France,1.9382743,45.4097306,France
Noisy-le-Sec,"(2.4516055, 48.8897751)",France,2.4516055,48.8897751,France
Châteaubriant,"(-1.3757282, 47.7194057)",France,-1.3757282,47.7194057,France
Koblenz,"(7.5943951, 50.3533278)",Deutschland,7.5943951,50.3533278,Germany
Nevers,"(3.1577203, 46.9876601)",France,3.1577203,46.9876601,France
Arcachon,"(-1.1700018, 44.6616428)",France,-1.1700018,44.6616428,France
Saint-Gildas-des-Bois,"(-2.0369967, 47.5174681)",France,-2.0369967,47.5174681,France
Plouay,"(-3.3470319507258073, 47.9181255)",France,-3.347031950725808,47.9181255,France
Saint Germain en Laye,"(2.0917742569617808, 48.93560465)",France,2.0917742569617808,48.93560465,France
Forest,"(4.3181187, 50.811795)",België / Belgique / Belgien,4.3181187,50.811795,Belgium
Prapoutel,"(5.9954353, 45.2567786)",France,5.9954353,45.2567786,France
Serre Chevalier,"(6.5500282, 44.9107381)",France,6.5500282,44.9107381,France
Gueugnon,"(4.0633825, 46.6005232)",France,4.0633825,46.6005232,France
Luxembourg City,"(6.129799, 49.6112768)",Lëtzebuerg,6.129799,49.6112768,Luxembourg
Mourenx,"(-0.6294321, 43.3708943)",France,-0.6294321,43.3708943,France
Circuit de Rouen-Les-Essarts,"(1.0140565, 49.3383769)",France,1.0140565,49.3383769,France
Escaldes-Engordany,"(1.6070001140292214, 42.48691275)",Andorra,1.6070001140292214,42.48691275,Andorra
Lodève,"(3.31892, 43.73106)",France,3.31892,43.73106,France
Revel,"(24.7453688, 59.4372155)",Eesti,24.7453688,59.4372155,Estonia
Vatan,"(1.809034, 47.0714569)",France,1.809034,47.0714569,France
St-Étienne,"(4.3873058, 45.4401467)",France,4.3873058,45.4401467,France
Bergerac,"(0.487531, 44.8534568)",France,0.487531,44.8534568,France
Guzet-Neige,"(1.3020896, 42.7791077)",France,1.3020896,42.7791077,France
Tournus,"(4.9122425, 46.5617373)",France,4.9122425,46.5617373,France
Salon-de-Provence,"(5.071901379926933, 43.642167549999996)",France,5.071901379926933,43.64216755,France
Harrogate,"(-1.5391039, 53.9921491)",United Kingdom,-1.5391039,53.9921491,United Kingdom
Rochefort,"(-0.9687519, 45.9438412)",France,-0.9687519,45.9438412,France
Forges-les-Eaux,"(1.5351516211598595, 49.61296845)",France,1.5351516211598597,49.61296845,France
Tonnerre,"(3.9733033, 47.8564662)",France,3.9733033,47.8564662,France
Super-Besse Sancy,"(2.8646104, 45.5028467)",France,2.8646104,45.5028467,France
Saarlouis,"(6.749846, 49.3164661)",Deutschland,6.749846,49.3164661,Germany
Nogent-sur-Marne,"(2.4917292, 48.8388009)",France,2.4917292,48.8388009,France
Castres,"(3.2383333, 49.8044444)",France,3.2383333,49.8044444,France
La Châtre,"(1.9892292, 46.5815678)",France,1.9892292,46.5815678,France
La Ferté-sous-Jouarre,"(3.1294221, 48.9500674)",France,3.1294221,48.9500674,France
Beauvais,"(2.0823355, 49.4300997)",France,2.0823355,49.4300997,France
Ciney,"(5.1008664, 50.2964911)",België / Belgique / Belgien,5.1008664,50.2964911,Belgium
Thionville,"(6.1675872, 49.3579272)",France,6.1675872,49.3579272,France
Auxerre,"(3.570579, 47.7961287)",France,3.570579,47.7961287,France
Gourette–Col d'Aubisque,,,,,
Ancenis,"(-1.1816088, 47.3648141)",France,-1.1816088,47.3648141,France
Le Pleynet,"(6.0555898, 45.2723252)",France,6.0555898,45.2723252,France
Nîmes,"(4.3600687, 43.8374249)",France,4.3600687,43.8374249,France
Montgenèvre,"(6.7184146, 44.9300126)",France,6.7184146,44.9300126,France
Lac Saint-Point,"(6.311630596095829, 46.815185)",France,6.311630596095829,46.815185,France
Lac de Payolle,"(0.2971510483022909, 42.9350241)",France,0.2971510483022909,42.9350241,France
St Gaudens,"(0.7247218, 43.1077682)",France,0.7247218,43.1077682,France
Colmar,"(7.3579641, 48.0777517)",France,7.3579641,48.0777517,France
Morcenx,"(-0.9113736, 44.0323042)",France,-0.9113736,44.0323042,France
Reims,"(4.031926, 49.2577886)",France,4.031926,49.2577886,France
Carnon-Plage,"(3.9884082090075825, 43.5469335)",France,3.988408209007584,43.5469335,France
Le Puy du Fou,"(-0.9320287, 46.8938688)",France,-0.9320287,46.8938688,France
St. Gaudens,"(0.7247218, 43.1077682)",France,0.7247218,43.1077682,France
Lille Metropole,"(3.0760812, 50.641835)",France,3.0760812,50.641835,France
Strasbourg,"(7.7507127, 48.584614)",France,7.7507127,48.584614,France
Cap Découverte,"(2.14217259234798, 44.01785495)",France,2.14217259234798,44.01785495,France
Mûr-de-Bretagne,"(-2.9826182529094267, 48.1960984)",France,-2.9826182529094267,48.1960984,France
Fougères,"(-1.1958526, 48.3503362)",France,-1.1958526,48.3503362,France
Sestriere,"(6.8786855, 44.9584528)",Italia,6.8786855,44.9584528,Italy
Aosta,"(7.3196649, 45.7370885)",Italia,7.3196649,45.7370885,Italy
Aix-en-Provence,"(5.4474738, 43.5298424)",France,5.4474738,43.5298424,France
Epinal,"(6.4503643, 48.1747684)",France,6.4503643,48.1747684,France
Santenay,"(4.6996302, 46.9115071)",France,4.6996302,46.9115071,France
Loudun,"(0.081826, 47.0102263)",France,0.081826,47.0102263,France
Malo-les-Bains,"(2.3984694, 51.0466792)",France,2.3984694,51.0466792,France
Pla d'Adet,"(0.2947084, 42.8125539)",France,0.2947084,42.8125539,France
Saarbrücken,"(6.997495426501035, 49.247108100000005)",Deutschland,6.997495426501035,49.247108100000005,Germany
Fribourg,"(7.1027113, 46.6789116)",Schweiz/Suisse/Svizzera/Svizra,7.1027113,46.6789116,Switzerland
Île d'Oléron,"(-1.2919938102023352, 45.9254859)",France,-1.2919938102023352,45.9254859,France
Valréas,"(4.9906089, 44.3851455)",France,4.9906089,44.3851455,France
Isola,"(7.0519874, 44.1860506)",France,7.0519874,44.1860506,France
Les Sables d'Olonne,"(-1.7924575344192666, 46.5002031)",France,-1.7924575344192666,46.5002031,France
Barcelona,"(2.1774322, 41.3828939)",España,2.1774322,41.3828939,Spain
Cambrai,"(3.2356613, 50.1759602)",France,3.2356613,50.1759602,France
Vals-les-Bains,"(4.365739, 44.6553304)",France,4.365739,44.6553304,France
Chalet Reynard,"(5.3189938, 44.1523405)",France,5.3189938,44.1523405,France
Hasselt,"(5.3378043, 50.9303735)",België / Belgique / Belgien,5.3378043,50.9303735,Belgium
Briançon,"(6.6436313, 44.8984037)",France,6.6436313,44.8984037,France
Saint-Gaudens,"(0.7247218, 43.1077682)",France,0.7247218,43.1077682,France
Avignon,"(4.8059012, 43.9492493)",France,4.8059012,43.9492493,France
Hautacam,"(-0.9912775, 46.8466377)",France,-0.9912775,46.8466377,France
Mondorf-les-Bains,"(6.2814238, 49.5071747)",Lëtzebuerg,6.2814238,49.5071747,Luxembourg
Lugny,"(3.8087528, 49.7816658)",France,3.8087528,49.7816658,France
La Haie-Fouassière,"(-1.4000716, 47.1546806)",France,-1.4000716,47.1546806,France
Saintes,"(-0.6300671, 45.7460663)",France,-0.6300671,45.7460663,France
Wasquehal,"(3.1312447, 50.6691577)",France,3.1312447,50.6691577,France
Nantes,"(-1.5541362, 47.2186371)",France,-1.5541362,47.2186371,France
La Seu d'Urgell,"(1.4560067, 42.3575723)",España,1.4560067,42.3575723,Spain
Nuits-Saint-Georges,"(4.9540989, 47.134979)",France,4.9540989,47.134979,France
Pau,"(-0.3685668, 43.2957547)",France,-0.3685668,43.2957547,France
Bédoin,"(5.1806559, 44.1240383)",France,5.1806559,44.1240383,France
Villefranche-sur-Saône,"(4.726611, 45.9864749)",France,4.726611,45.9864749,France
Porto-Vecchio,"(9.2794469, 41.5911382)",France,9.2794469,41.5911382,France
La Bourboule,"(2.7401614, 45.5892481)",France,2.7401614,45.5892481,France
Saint-Flour,"(3.5026164, 45.7084425)",France,3.5026164,45.7084425,France
Lacanau,"(-1.0784851, 44.9776088)",France,-1.0784851,44.9776088,France
Château-Thierry,"(3.4027111, 49.0457362)",France,3.4027111,49.0457362,France
Montbéliard,"(6.7977564, 47.5102368)",France,6.7977564,47.5102368,France
Autrans,"(5.560912074563527, 45.19969585)",France,5.560912074563527,45.19969585,France
Angers,"(-0.5515588, 47.4739884)",France,-0.5515588,47.4739884,France
Merlin-Plage,"(1.5738494, 50.6766469)",France,1.5738494,50.6766469,France
Chantonnay,"(-1.0505509, 46.6868121)",France,-1.0505509,46.6868121,France
Sauternes,"(-0.341386, 44.5327805)",France,-0.341386,44.5327805,France
Bazas,"(-0.2126009, 44.4320456)",France,-0.2126009,44.4320456,France
Futuroscope,"(0.36674282520720536, 46.667614)",France,0.3667428252072053,46.667614,France
San Sebastián,"(-1.9838889, 43.3224219)",España,-1.9838889,43.3224219,Spain
Redon,"(-2.0842143, 47.6510682)",France,-2.0842143,47.6510682,France
Col du Galibier-Serre Chevalier,,,,,
Freiburg,"(7.8494005, 47.9960901)",Deutschland,7.8494005,47.9960901,Germany
La Mure,"(5.7871983, 44.9038429)",France,5.7871983,44.9038429,France
Antony/Parc de Sceaux,"(2.298092497395581, 48.7693698)",France,2.298092497395581,48.7693698,France
Caen,"(-0.3635615, 49.1813403)",France,-0.3635615,49.1813403,France
Agen,"(0.6176112, 44.2015827)",France,0.6176112,44.2015827,France
Valentigney,"(6.8308784, 47.4622925)",France,6.8308784,47.4622925,France
Marche-en-Famenne,"(5.3407365, 50.2265147)",België / Belgique / Belgien,5.3407365,50.2265147,Belgium
Lunéville,"(6.4919563, 48.5916164)",France,6.4919563,48.5916164,France
Epernay,"(3.9528655, 49.042561)",France,3.9528655,49.042561,France
Nancy,"(6.1834097, 48.6937223)",France,6.1834097,48.6937223,France
Cannes,"(7.0134418, 43.5515198)",France,7.0134418,43.5515198,France
Isola 2000,"(7.145441205329339, 44.1869246)",France,7.145441205329339,44.1869246,France
Meaux,"(2.8773541, 48.9582708)",France,2.8773541,48.9582708,France
La Pierre Saint-Martin,"(-0.7443902, 42.9773624)",France,-0.7443902,42.9773624,France
Mont-Ventoux,"(5.2783976, 44.1739649)",France,5.2783976,44.1739649,France
Pontarlier,"(6.3546345, 46.9040348)",France,6.3546345,46.9040348,France
Gap,"(6.0820639, 44.5612032)",France,6.0820639,44.5612032,France
"Circuit de la Prairie, Caen",,,,,
La Ruchère,"(5.8076539, 45.4157349)",France,5.8076539,45.4157349,France
Alès,"(4.0852818, 44.1253665)",France,4.0852818,44.1253665,France
Aigurande,"(1.8295876, 46.4342921)",France,1.8295876,46.4342921,France
Lanester,"(-3.3444489, 47.7639726)",France,-3.3444489,47.7639726,France
Saint-Vincent,"(-61.2765569, 12.90447)",aint Vincent and the Grenadines,-61.2765569,12.90447,Saint Vincent and the Grenadines
Vitre,"(-1.214331, 48.1244503)",France,-1.214331,48.1244503,France
Tournai,"(3.3878179, 50.6056458)",België / Belgique / Belgien,3.3878179,50.6056458,Belgium
Turin,"(7.6824892, 45.0677551)",Italia,7.6824892,45.0677551,Italy
Puy de Dôme,"(3.0839934206717934, 45.7715343)",France,3.0839934206717934,45.7715343,France
Avranches,"(-1.3634379895766875, 48.688189)",France,-1.3634379895766875,48.688189,France
Saint-Trivier-sur-Moignans,"(4.89387269201019, 46.0631873)",France,4.89387269201019,46.0631873,France
Joigny,"(3.3995767, 47.9812486)",France,3.3995767,47.9812486,France
Montjuïc circuit,"(2.1582485, 41.3642113)",España,2.1582485,41.3642113,Spain
Pinerolo,"(7.3319454, 44.8873086)",Italia,7.3319454,44.8873086,Italy
Fleurance,"(0.6640617, 43.849295)",France,0.6640617,43.849295,France
Prato Nevoso,"(7.7855885, 44.2552915)",Italia,7.7855885,44.2552915,Italy
Moutiers,"(5.9669258, 49.2332157)",France,5.9669258,49.2332157,France
Lac de Vassivière,"(1.9005095420269495, 45.798008100000004)",France,1.900509542026949,45.7980081,France
Karlsruhe,"(8.4034195, 49.0068705)",Deutschland,8.4034195,49.0068705,Germany
Biarritz,"(-1.5592776, 43.4832523)",France,-1.5592776,43.4832523,France
La Planche des Belles Filles,"(6.7735372, 47.7671922)",France,6.7735372,47.7671922,France
Valenciennes,"(3.5234846, 50.3579317)",France,3.5234846,50.3579317,France
Rungis,"(2.3472665, 48.7484048)",France,2.3472665,48.7484048,France
Super-Lioran,"(2.7491802, 45.083144)",France,2.7491802,45.083144,France
Cherbourg-en-Cotentin,"(-1.6249565, 49.6425343)",France,-1.6249565,49.6425343,France
Clermont-Ferrand,"(3.0819427, 45.7774551)",France,3.0819427,45.7774551,France
Tignes,"(6.907594, 45.4697293)",France,6.907594,45.4697293,France
York,"(-1.0815361, 53.9590555)",United Kingdom,-1.0815361,53.9590555,United Kingdom
Nogent-sur-Oise,"(2.4676727, 49.2744711)",France,2.4676727,49.2744711,France
Scheveningen,"(4.2736937, 52.1067449)",Nederland,4.2736937,52.1067449,Netherlands
Col du Tourmalet,"(0.1452852, 42.9083885)",France,0.1452852,42.9083885,France
Les Arcs,"(6.4786269, 43.4629097)",France,6.4786269,43.4629097,France
Voreppe,"(5.6359049, 45.2927216)",France,5.6359049,45.2927216,France
Fontaine,"(5.6869624, 45.1950183)",France,5.6869624,45.1950183,France
Amiens,"(2.2956951, 49.8941708)",France,2.2956951,49.8941708,France
Pauillac,"(-0.7484994, 45.1995626)",France,-0.7484994,45.1995626,France
Lac de Madine,"(5.749502258220149, 48.91700605)",France,5.749502258220149,48.91700605,France
Utrecht,"(5.12768396945229, 52.080985600000005)",Nederland,5.12768396945229,52.080985600000005,Netherlands
Hendaye,"(-1.7616499, 43.3641518)",France,-1.7616499,43.3641518,France
La Défense,"(2.2412078, 48.891008)",France,2.2412078,48.891008,France
Montélimar,"(4.750318, 44.5579391)",France,4.750318,44.5579391,France
Alpe d'Huez,"(9.5957767, 56.1305266)",Danmark,9.5957767,56.1305266,Danemark
Argentan,"(-0.0223695, 48.7428859)",France,-0.0223695,48.7428859,France
Evreux,"(1.1510164, 49.0268903)",France,1.1510164,49.0268903,France
Besse-en-Chandesse,"(2.9329614, 45.5115738)",France,2.9329614,45.5115738,France
Monaco,"(7.424224092532953, 43.73844905)",onaco,7.424224092532953,43.73844905,Monaco
Jaunay-Clan,"(0.36249102317505283, 46.6945306)",France,0.3624910231750528,46.6945306,France
Oyonnax,"(5.673359347171946, 46.2476592)",France,5.673359347171946,46.2476592,France
Mont Saint-Michel,"(-1.511459954959514, 48.6359541)",France,-1.511459954959514,48.6359541,France
Châtel,"(6.8412678, 46.2671987)",France,6.8412678,46.2671987,France
Semur-en-Auxois,"(4.3328705, 47.4902149)",France,4.3328705,47.4902149,France
Crans-Montana,"(7.526435803722132, 46.3304899)",Schweiz/Suisse/Svizzera/Svizra,7.526435803722132,46.3304899,Switzerland
Trets,"(5.695837861753616, 43.445064900000006)",France,5.695837861753616,43.445064900000006,France
Saint-Gilles-Croix-de-Vie,"(-1.9254545, 46.692985)",France,-1.9254545,46.692985,France
Oloron-Sainte-Marie,"(-0.6115586, 43.1922408)",France,-0.6115586,43.1922408,France
Vaison-la-Romaine,"(5.075737, 44.2407641)",France,5.075737,44.2407641,France
Châteaulin,"(-4.0916875, 48.1968026)",France,-4.0916875,48.1968026,France
Le Puy,"(0.0738889, 44.6619444)",France,0.0738889,44.6619444,France
Aime,"(6.6229794183746336, 45.5555869)",France,6.6229794183746336,45.5555869,France
Poitiers,"(0.340196, 46.5802596)",France,0.340196,46.5802596,France
Morzine,"(6.7091057, 46.1799561)",France,6.7091057,46.1799561,France
Passage du Gois,"(-2.8898822, 47.5824796)",France,-2.8898822,47.5824796,France
Peyragudes,"(0.4561131095802365, 42.7807436)",France,0.4561131095802365,42.7807436,France
Rennes,"(-1.6800198, 48.1113387)",France,-1.6800198,48.1113387,France
Laplume,"(0.531008, 44.1132833)",France,0.531008,44.1132833,France
Herentals,"(4.83462866367042, 51.1855307)",België / Belgique / Belgien,4.83462866367042,51.1855307,Belgium
Cergy-Pontoise,"(2.0388736, 49.0527528)",France,2.0388736,49.0527528,France
Viry-Châtillon,"(2.3750351, 48.6708729)",France,2.3750351,48.6708729,France
Vielha Val d'Aran,"(0.7954744, 42.7017572)",España,0.7954744,42.7017572,Spain
Rodez,"(2.5727883, 44.3513062)",France,2.5727883,44.3513062,France
Périgueux,"(0.7184407, 45.1909365)",France,0.7184407,45.1909365,France
Figeac,"(2.0324321, 44.6092335)",France,2.0324321,44.6092335,France
Saint-Pourçain-sur-Sioule,"(3.2899107, 46.3074423)",France,3.2899107,46.3074423,France
Argelès-Gazost,"(-0.0997681, 43.00511)",France,-0.0997681,43.00511,France
Valence,"(-0.3763353, 39.4697065)",España,-0.3763353,39.4697065,Spain
Dinan,"(-2.047687, 48.4539775)",France,-2.047687,48.4539775,France
Limoux,"(2.2176533, 43.0538068)",France,2.2176533,43.0538068,France
Guéret,"(1.8713349, 46.1686865)",France,1.8713349,46.1686865,France
Moûtiers,"(6.5340061, 45.4849883)",France,6.5340061,45.4849883,France
West Berlin,"(-64.5827869, 44.0742673)",Canada,-64.5827869,44.0742673,Canada
Pamiers,"(1.6082177, 43.1147515)",France,1.6082177,43.1147515,France
Cap d'Agde,"(3.5117752, 43.2845374)",France,3.5117752,43.2845374,France
Saint-Émilion,"(-0.1560662, 44.8931452)",France,-0.1560662,44.8931452,France
Esch-sur-Alzette,"(5.9850306, 49.4959628)",Lëtzebuerg,5.9850306,49.4959628,Luxembourg
Girona,"(2.8199439, 41.9793006)",España,2.8199439,41.9793006,Spain
Bourg-de-Péage,"(5.0520015, 45.0354375)",France,5.0520015,45.0354375,France
Eymet,"(0.3984795, 44.6681229)",France,0.3984795,44.6681229,France
Senlis,"(2.1523287, 50.5331612)",France,2.1523287,50.5331612,France
Möhlin,"(7.8431299, 47.560991)",Schweiz/Suisse/Svizzera/Svizra,7.8431299,47.560991,Switzerland
Bourg-lès-Valence,"(4.8953847, 44.9528222)",France,4.8953847,44.9528222,France
Givors,"(4.7696529, 45.5844238)",France,4.7696529,45.5844238,France
Saint-Malo,"(-2.0260409, 48.649518)",France,-2.0260409,48.649518,France
Ville-d'Avray,"(2.1894241, 48.8279362)",France,2.1894241,48.8279362,France
Le Cap d'Agde,"(3.502283754025185, 43.2864503)",France,3.502283754025185,43.2864503,France
Saint Gervais-les-Bains,"(6.7113338, 45.8928549)",France,6.7113338,45.8928549,France
Bellegarde-sur-Valserine,"(5.830749559824268, 46.1073321)",France,5.830749559824268,46.1073321,France
Bagnères-de-Bigorre,"(0.1530914, 43.0658212)",France,0.1530914,43.0658212,France
Charleville,"(3.6664318, 48.813549)",France,3.6664318,48.813549,France
Longwy,"(5.7679082, 49.5145564)",France,5.7679082,49.5145564,France
Nantua,"(5.6058987, 46.1534255)",France,5.6058987,46.1534255,France
Samatan,"(0.9316667, 43.4936111)",France,0.9316667,43.4936111,France
Brest,"(-4.4860088, 48.3905283)",France,-4.4860088,48.3905283,France
Charleville-Mézières,"(4.7206939, 49.7735712)",France,4.7206939,49.7735712,France
Amsterdam,"(4.8936041, 52.3727598)",Nederland,4.8936041,52.3727598,Netherlands
Évry,"(3.25604, 48.26406)",France,3.25604,48.26406,France
Saint-Amand-les-Eaux,"(3.4281142, 50.4491519)",France,3.4281142,50.4491519,France
La Rochelle,"(-1.1520434, 46.1591126)",France,-1.1520434,46.1591126,France
Évreux,"(1.1510164, 49.0268903)",France,1.1510164,49.0268903,France
Pontchâteau,"(-2.0880233, 47.4373374)",France,-2.0880233,47.4373374,France
Saint-Herblain,"(-1.6346964, 47.2233007)",France,-1.6346964,47.2233007,France
Cholet,"(-0.8801349, 47.0617293)",France,-0.8801349,47.0617293,France
Frankfurt,"(8.6820917, 50.1106444)",Deutschland,8.6820917,50.1106444,Germany
Valence d'Agen,"(0.8902778, 44.1111111)",France,0.8902778,44.1111111,France
Calais,"(1.8538446, 50.9524769)",France,1.8538446,50.9524769,France
Trouville,"(0.6010584, 49.5732368)",France,0.6010584,49.5732368,France
Châteauroux,"(1.6770956, 46.8203785)",France,1.6770956,46.8203785,France
Lézignan-Corbières,"(2.7574981, 43.2008841)",France,2.7574981,43.2008841,France
Belfort,"(6.8628942, 47.6379599)",France,6.8628942,47.6379599,France
Roanne,"(4.0729178, 46.0345572)",France,4.0729178,46.0345572,France
La Mongie,"(-1.3330366, 47.0306867)",France,-1.3330366,47.0306867,France
Saint-Léonard-de-Noblat,"(1.4924586, 45.8377349)",France,1.4924586,45.8377349,France
Rossignol Voiron,,,,,
Dax,"(-1.0518771, 43.7084065)",France,-1.0518771,43.7084065,France
Rouen,"(1.0939658, 49.4404591)",France,1.0939658,49.4404591,France
Menton,"(7.5029213, 43.7753495)",France,7.5029213,43.7753495,France
Les Menuires,"(6.5388965, 45.3242744)",France,6.5388965,45.3242744,France
Sallanches,"(6.6302551, 45.9361246)",France,6.6302551,45.9361246,France
Plateau de Bonascre,"(1.8154193, 42.7014614)",France,1.8154193,42.7014614,France
Carpentras,"(5.0487681, 44.0554043)",France,5.0487681,44.0554043,France
Wanze,"(5.2143865, 50.5368559)",België / Belgique / Belgien,5.2143865,50.5368559,Belgium
Évian-les-Bains,"(6.581331041801459, 46.3910965)",France,6.581331041801459,46.3910965,France
Montaigu,"(3.83264, 49.535)",France,3.83264,49.535,France
Toulouse,"(1.4442469, 43.6044622)",France,1.4442469,43.6044622,France
Valloire,"(6.4290103, 45.165058)",France,6.4290103,45.165058,France
Troyes,"(4.0746257, 48.2971626)",France,4.0746257,48.2971626,France
Méribel,"(-88.14579612460193, 42.03009625)",United States,-88.14579612460193,42.03009625,United States
Embrun,"(6.4958189, 44.5641764)",France,6.4958189,44.5641764,France
Courchevel,"(6.6349892, 45.4140984)",France,6.6349892,45.4140984,France
Chalon-sur-Saône,"(4.8529605, 46.7888997)",France,4.8529605,46.7888997,France
Seraing,"(5.5089437, 50.6152381)",België / Belgique / Belgien,5.5089437,50.6152381,Belgium
Versailles,"(2.1266886, 48.8035403)",France,2.1266886,48.8035403,France
Saint-Lary-Soulan Pla d'Adet,"(0.2947084, 42.8125539)",France,0.2947084,42.8125539,France
Cancale,"(-1.8506953, 48.6771721)",France,-1.8506953,48.6771721,France
Dover,"(1.3134228, 51.1251275)",United Kingdom,1.3134228,51.1251275,United Kingdom
Liège,"(5.5734203, 50.6451381)",België / Belgique / Belgien,5.5734203,50.6451381,Belgium
Lausanne,"(6.6327025, 46.5218269)",Schweiz/Suisse/Svizzera/Svizra,6.6327025,46.5218269,Switzerland
Laon,"(3.620686, 49.564665)",France,3.620686,49.564665,France
Montargis,"(2.7310072, 47.9978628)",France,2.7310072,47.9978628,France
Saint-Galmier,"(4.3183716, 45.5903147)",France,4.3183716,45.5903147,France
Maubeuge,"(3.9674127, 50.2796417)",France,3.9674127,50.2796417,France
Saint-Gervais,"(5.4820229, 45.2022356)",France,5.4820229,45.2022356,France
Verviers,"(5.867828, 50.59324)",België / Belgique / Belgien,5.867828,50.59324,Belgium
Neuchâtel,"(6.9292641, 46.9895828)",Schweiz/Suisse/Svizzera/Svizra,6.9292641,46.9895828,Switzerland
Vire,"(-0.8872594458318377, 48.8517468)",France,-0.8872594458318377,48.8517468,France
Avoriaz,"(6.7702857, 46.1925439)",France,6.7702857,46.1925439,France
Villers-sur-Mer,"(-0.0052517, 49.3214437)",France,-0.0052517,49.3214437,France
Compiègne,"(2.8263171, 49.4179497)",France,2.8263171,49.4179497,France
Bourg-Saint-Andéol,"(4.6457565, 44.3707629)",France,4.6457565,44.3707629,France
Arpajon,"(2.2477303, 48.5902899)",France,2.2477303,48.5902899,France
Evian,"(7.2005023, 45.7108265)",Italia,7.2005023,45.7108265,Italy
Brasschaat,"(4.4917295, 51.2900693)",België / Belgique / Belgien,4.4917295,51.2900693,Belgium
Sint-Niklaas,"(4.1395124, 51.1646685)",België / Belgique / Belgien,4.1395124,51.1646685,Belgium
Le Havre,"(0.1079732, 49.4938975)",France,0.1079732,49.4938975,France
Seignosse le Penon,"(-1.4269704, 43.7061728)",France,-1.4269704,43.7061728,France
Rotterdam,"(4.47775, 51.9244424)",Nederland,4.47775,51.9244424,Netherlands
Montpon-Ménestérol,"(0.15672815508290233, 45.01624955)",France,0.1567281550829023,45.01624955,France
Challans,"(-1.8773787, 46.847943)",France,-1.8773787,46.847943,France
Le Puy-en-Velay,"(3.8855537, 45.0459739)",France,3.8855537,45.0459739,France
Royan,"(-1.0287636, 45.6245332)",France,-1.0287636,45.6245332,France
Charleroi,"(4.4436244, 50.4120332)",België / Belgique / Belgien,4.4436244,50.4120332,Belgium
Sète,"(3.6959771, 43.4014434)",France,3.6959771,43.4014434,France
Les Essarts,"(0.9921207721113022, 48.880996999999994)",France,0.9921207721113022,48.880997,France
Annecy,"(6.1288847, 45.8992348)",France,6.1288847,45.8992348,France
Modane,"(6.6728169, 45.2015369)",France,6.6728169,45.2015369,France
Bastia,"(9.4512866, 42.7008676)",France,9.4512866,42.7008676,France
Mont des Alouettes,"(-1.0102582, 46.8947736)",France,-1.0102582,46.8947736,France
Mayenne,"(-0.6491273812007092, 48.1507819)",France,-0.6491273812007092,48.1507819,France
Saint-Dier-d'Auvergne,"(3.4818948, 45.6758768)",France,3.4818948,45.6758768,France
Le Creusot,"(4.4285961, 46.8054064)",France,4.4285961,46.8054064,France
Louvroil,"(3.9623154, 50.2644717)",France,3.9623154,50.2644717,France
Bar-le-Duc,"(5.1623805, 48.7712673)",France,5.1623805,48.7712673,France
St. Brieuc,"(-2.7603283, 48.5141134)",France,-2.7603283,48.5141134,France
Sheffield,"(-1.4702278, 53.3806626)",United Kingdom,-1.4702278,53.3806626,United Kingdom
Val d'Aran/Pla-de-Beret,"(0.9471485, 42.7111635)",España,0.9471485,42.7111635,Spain
Labastide-d'Armagnac,"(-0.1855262, 43.9696038)",France,-0.1855262,43.9696038,France
Ivrea,"(7.874797, 45.4673791)",Italia,7.874797,45.4673791,Italy
Beringen,"(5.220809082300834, 51.0502026)",België / Belgique / Belgien,5.220809082300834,51.0502026,Belgium
La Guerche-de-Bretagne,"(-1.231454, 47.9426332)",France,-1.231454,47.9426332,France
Saint-Denis,"(2.3580232, 48.935773)",France,2.3580232,48.935773,France
Grenoble,"(5.7357819, 45.1875602)",France,5.7357819,45.1875602,France
Mâcon,"(4.8322266, 46.3036683)",France,4.8322266,46.3036683,France
Val-Louron,"(0.3899518, 42.791965)",France,0.3899518,42.791965,France
La Toussuire-Les Sybelles,"(6.254302998917014, 45.2637202)",France,6.254302998917014,45.2637202,France
Waterloo,"(-92.3328743, 42.498275)",United States,-92.3328743,42.498275,United States
Maastricht,"(5.6909768, 50.8512438)",Nederland,5.6909768,50.8512438,Netherlands
Ax-les-Thermes,"(1.8379765, 42.7193597)",France,1.8379765,42.7193597,France
Huy,"(5.2408138, 50.5180856)",België / Belgique / Belgien,5.2408138,50.5180856,Belgium
Ghent,"(3.7250121, 51.0538286)",België / Belgique / Belgien,3.7250121,51.0538286,Belgium
Digne-les-Bains,"(6.2351431, 44.0918144)",France,6.2351431,44.0918144,France
Le Mans,"(0.1967849, 48.0073849)",France,0.1967849,48.0073849,France
Mende,"(3.4991057, 44.5180226)",France,3.4991057,44.5180226,France
Circuit des Essarts,"(1.0140565, 49.3383769)",France,1.0140565,49.3383769,France
Bern,"(7.4514512, 46.9482713)",Schweiz/Suisse/Svizzera/Svizra,7.4514512,46.9482713,Switzerland
Cugnaux,"(1.3457537, 43.5369936)",France,1.3457537,43.5369936,France
L'Isle-d'Abeau,"(5.2298398, 45.6230017)",France,5.2298398,45.6230017,France
Albertville,"(6.3925417, 45.6754622)",France,6.3925417,45.6754622,France
Antibes,"(7.10905, 43.5836)",France,7.10905,43.5836,France
Villeurbanne,"(4.886899, 45.7733124)",France,4.886899,45.7733124,France
Lannion,"(-3.4587994, 48.7322183)",France,-3.4587994,48.7322183,France
Divonne-les-Bains,"(6.122142756112563, 46.3753281)",France,6.122142756112563,46.3753281,France
Cambridge,"(0.1186637, 52.2055314)",United Kingdom,0.1186637,52.2055314,United Kingdom
Albi,"(2.147899, 43.9277552)",France,2.147899,43.9277552,France
Épinal,"(6.4503643, 48.1747684)",France,6.4503643,48.1747684,France
Arras,"(2.7772211, 50.291048)",France,2.7772211,50.291048,France
Besançon,"(6.0243622, 47.2380222)",France,6.0243622,47.2380222,France
Pantin,"(2.4019804, 48.8965023)",France,2.4019804,48.8965023,France
Super Besse,"(2.8561577, 45.5114582)",France,2.8561577,45.5114582,France
Culoz,"(5.785315423820098, 45.8556974)",France,5.785315423820098,45.8556974,France
Millau,"(3.0777594, 44.1006693)",France,3.0777594,44.1006693,France
Jausiers,"(6.7340119, 44.4194297)",France,6.7340119,44.4194297,France
Annonay-Davézieux,"(4.6941932, 45.2518462)",France,4.6941932,45.2518462,France
Montauban,"(1.3549991, 44.0175835)",France,1.3549991,44.0175835,France
La Châtaigneraie,"(-0.7391667, 46.65)",France,-0.7391667,46.65,France
Gaillac,"(1.8967943, 43.9016766)",France,1.8967943,43.9016766,France
Colomiers,"(1.3282149, 43.6121001)",France,1.3282149,43.6121001,France
Carcassonne,"(2.3491069, 43.2130358)",France,2.3491069,43.2130358,France
Trélissac,"(0.7835042, 45.1970172)",France,0.7835042,45.1970172,France
Marcoussis,"(2.2310497, 48.6432483)",France,2.2310497,48.6432483,France
Cherbourg,"(-1.6249565, 49.6425343)",France,-1.6249565,49.6425343,France
Pal,"(1.4759787, 42.5457992)",Andorra,1.4759787,42.5457992,Andorra
Chaumont,"(5.1395849, 48.1111324)",France,5.1395849,48.1111324,France
Mont Ventoux,"(5.2783976, 44.1739649)",France,5.2783976,44.1739649,France
Le Blanc,"(1.062694, 46.633292)",France,1.062694,46.633292,France
Tulle,"(1.7706797, 45.2678347)",France,1.7706797,45.2678347,France
Argelès-sur-Mer,"(3.0300793, 42.5490447)",France,3.0300793,42.5490447,France
Fontenay-sous-Bois,"(2.4749347, 48.8490721)",France,2.4749347,48.8490721,France
Bourg-Saint-Maurice,"(6.7694313, 45.6185284)",France,6.7694313,45.6185284,France
Bourg-en-Bresse,"(5.2250324, 46.2051192)",France,5.2250324,46.2051192,France
Arenberg Porte du Hainaut,"(3.4268928, 50.3841596)",France,3.4268928,50.3841596,France
Maubourguet Pays du Val d’Adour,,,,,
Boulogne-sur-Mer,"(1.6118771, 50.7259985)",France,1.6118771,50.7259985,France
Pouilly-en-Auxois,"(4.5561961, 47.2622415)",France,4.5561961,47.2622415,France
Le Touquet,"(2.9126738, 50.7112526)",België / Belgique / Belgien,2.9126738,50.7112526,Belgium
Carhaix,"(-3.562236004658576, 48.2780042)",France,-3.562236004658576,48.2780042,France
Sablé-sur-Sarthe,"(-0.3352048, 47.8400712)",France,-0.3352048,47.8400712,France
Castelnaudary,"(1.9533495, 43.3192021)",France,1.9533495,43.3192021,France
Peyrehorade,"(-1.105088, 43.5440941)",France,-1.105088,43.5440941,France
Niort,"(-0.4649403, 46.3241132)",France,-0.4649403,46.3241132,France
Bagnoles-de-l'Orne,"(-0.4229186, 48.5539388)",France,-0.4229186,48.5539388,France
London,"(-0.1276474, 51.5073219)",United Kingdom,-0.1276474,51.5073219,United Kingdom
Montluçon,"(2.6072057, 46.3396952)",France,2.6072057,46.3396952,France
Loudenvielle,"(0.432756430914433, 42.75075665)",France,0.432756430914433,42.75075665,France
Frontignan la Peyrade,"(3.7266105, 43.4264271)",France,3.7266105,43.4264271,France
Orcières,"(6.3267475, 44.6833203)",France,6.3267475,44.6833203,France
Chartres,"(1.4881434, 48.4438601)",France,1.4881434,48.4438601,France
Bourg-d'Oisans,"(6.0278356, 45.0555411)",France,6.0278356,45.0555411,France
Disneyland Paris,"(2.7755419640677923, 48.87231975)",France,2.7755419640677923,48.87231975,France
Portsmouth,"(-1.075614, 50.8036831)",United Kingdom,-1.075614,50.8036831,United Kingdom
Valkenburg,"(5.8312518, 50.8647531)",Nederland,5.8312518,50.8647531,Netherlands
Porrentruy,"(7.0761342, 47.4171297)",Schweiz/Suisse/Svizzera/Svizra,7.0761342,47.4171297,Switzerland
Sint-Pieters-Woluwe,"(4.4274636, 50.8370253)",België / Belgique / Belgien,4.4274636,50.8370253,Belgium
Saint-Lô,"(-1.0906637, 49.1157004)",France,-1.0906637,49.1157004,France
Bonneval,"(1.3840504680157402, 48.17890365)",France,1.3840504680157402,48.17890365,France
Soissons,"(3.327613, 49.3837621)",France,3.327613,49.3837621,France
Salies-de-Béarn,"(-0.9234025, 43.4703515)",France,-0.9234025,43.4703515,France
Cosne-sur-Loire,"(2.9319441, 47.4139645)",France,2.9319441,47.4139645,France
Le Bourg-d'Oisans,"(6.0306625, 45.054713)",France,6.0306625,45.054713,France
Avesnes-sur-Helpe,"(3.9321056, 50.1218835)",France,3.9321056,50.1218835,France
Superbagnères,"(0.5767603001553565, 42.767314400000004)",France,0.5767603001553565,42.7673144,France
Sainte-Geneviève-des-Bois,"(2.3259129, 48.6407872)",France,2.3259129,48.6407872,France
Pyrénées 2000,"(2.059667, 42.5210406)",France,2.059667,42.5210406,France
Saumur,"(-0.0785177, 47.2596224)",France,-0.0785177,47.2596224,France
Dijon,"(5.0414701, 47.3215806)",France,5.0414701,47.3215806,France
Jambes,"(4.8723252, 50.4589561)",België / Belgique / Belgien,4.8723252,50.4589561,Belgium
Arc-et-Senans,"(5.7818173, 47.0332329)",France,5.7818173,47.0332329,France
Savines-le-Lac,"(6.4049867, 44.5257904)",France,6.4049867,44.5257904,France
Plateau de Beille,"(1.7051011, 42.7145199)",France,1.7051011,42.7145199,France
Lons-le-Saunier,"(5.5589973, 46.6727037)",France,5.5589973,46.6727037,France
Sèvres,"(2.2127083, 48.8247407)",France,2.2127083,48.8247407,France
Cagnes-sur-Mer,"(7.1513834, 43.6612012)",France,7.1513834,43.6612012,France
Plateau-de-Beille,"(1.7051011, 42.7145199)",France,1.7051011,42.7145199,France
Andorra Arcalis,"(1.4912605793978895, 42.6271621)",Andorra,1.4912605793978897,42.6271621,Andorra
Zürich,"(8.5410422, 47.3744489)",Schweiz/Suisse/Svizzera/Svizra,8.5410422,47.3744489,Switzerland
La Roche-sur-Yon,"(-1.4269698, 46.6705431)",France,-1.4269698,46.6705431,France
Basel,"(7.5878261, 47.5581077)",Schweiz/Suisse/Svizzera/Svizra,7.5878261,47.5581077,Switzerland
Ruffec,"(0.1994619, 46.0287057)",France,0.1994619,46.0287057,France
Barcelonnette,"(6.6513554, 44.3862043)",France,6.6513554,44.3862043,France
Obernai,"(7.4864338937215855, 48.454713999999996)",France,7.4864338937215855,48.454714,France
Mazé-Montgeoffroy,"(-0.27591988185190963, 47.4688575)",France,-0.2759198818519096,47.4688575,France
Bordeaux,"(-0.5800364, 44.841225)",France,-0.5800364,44.841225,France
Thuir,"(2.754368642550069, 42.6382508)",France,2.754368642550069,42.6382508,France
Ajaccio,"(8.7376029, 41.9263991)",France,8.7376029,41.9263991,France
Dunkerque,"(2.3772525, 51.0347708)",France,2.3772525,51.0347708,France
Cap Fréhel,"(-2.318767, 48.6792002)",France,-2.318767,48.6792002,France
Bagnères-de-Luchon,"(0.5912279, 42.7910617)",France,0.5912279,42.7910617,France
Saint-Girons,"(1.140313981833387, 42.966638)",France,1.140313981833387,42.966638,France
Verbier,"(7.2285478, 46.0967949)",Schweiz/Suisse/Svizzera/Svizra,7.2285478,46.0967949,Switzerland
Meudon,"(2.2385432, 48.8126688)",France,2.2385432,48.8126688,France
Vannes,"(-2.7599079, 47.6586772)",,-2.7599079,47.6586772,
Luchon,"(0.5912279, 42.7910617)",,0.5912279,42.7910617,
Leeds,"(-1.5437941, 53.7974185)",,-1.5437941,53.7974185,
Damazan,"(0.2751527, 44.2899682)",France,0.2751527,44.2899682,France
Fécamp,"(0.374891, 49.7577729)",France,0.374891,49.7577729,France
Saint-Nazaire,"(-2.2138905, 47.2733517)",France,-2.2138905,47.2733517,France
Chorges,"(6.2754561, 44.5450837)",France,6.2754561,44.5450837,France
Ballon d'Alsace,"(6.8448679, 47.8224909)",France,6.8448679,47.8224909,France
Aubisque,"(-0.4096223, 43.3311751)",France,-0.4096223,43.3311751,France
Orcières-Merlette,"(6.3235516, 44.6972064)",France,6.3235516,44.6972064,France
Bourgoin,"(5.2828123, 45.5872259)",France,5.2828123,45.5872259,France
Paris,"(2.3200410217200766, 48.8588897)",France,2.3200410217200766,48.8588897,France
Saint-Méen-le-Grand,"(-2.1911338, 48.1894709)",France,-2.1911338,48.1894709,France
Captieux,"(-0.2614831, 44.2920456)",France,-0.2614831,44.2920456,France
Wiesbaden,"(8.2416556, 50.0820384)",Deutschland,8.2416556,50.0820384,Germany
Namur,"(4.8661892, 50.4665284)",België / Belgique / Belgien,4.8661892,50.4665284,Belgium
Ballon d’Alsace,"(6.8448679, 47.8224909)",France,6.8448679,47.8224909,France
Carmaux,"(2.1583033, 44.0496296)",France,2.1583033,44.0496296,France
Liévin,"(2.7738, 50.4245)",France,2.7738,50.4245,France
Saint-Lary Pla d’Adet,"(0.2947084, 42.8125539)",France,0.2947084,42.8125539,France
Laruns,"(-0.4266324, 42.9882368)",France,-0.4266324,42.9882368,France
Nay,"(-0.2621768, 43.1798743)",France,-0.2621768,43.1798743,France
Épinay-sous-Sénart,"(2.5162, 48.6877)",France,2.5162,48.6877,France
Flers,"(2.25255, 50.32053)",France,2.25255,50.32053,France
Canterbury,"(1.0802533, 51.2800275)",United Kingdom,1.0802533,51.2800275,United Kingdom
Le Grand-Bornand,"(6.4271457, 45.9418675)",France,6.4271457,45.9418675,France
Moirans-en-Montagne,"(5.7255731, 46.431063)",France,5.7255731,46.431063,France
Laissac-Sévérac-l'Église,"(2.8387050307962705, 44.36917755)",France,2.8387050307962705,44.36917755,France
Plymouth,"(-4.1425658, 50.3712659)",United Kingdom,-4.1425658,50.3712659,United Kingdom
Sceaux,"(4.021844858050334, 47.514728500000004)",France,4.021844858050334,47.5147285,France
Mont-de-Marsan,"(-0.500972, 43.8911318)",France,-0.500972,43.8911318,France
Dublin,"(-6.2602732, 53.3497645)",Éire / Ireland,-6.2602732,53.3497645,Ireland
Auch,"(0.5850507, 43.6463558)",France,0.5850507,43.6463558,France
Beveren,"(4.249081329859443, 51.21288495)",België / Belgique / Belgien,4.249081329859443,51.21288495,Belgium
Station des Rousses,"(6.0546024, 46.4557195)",France,6.0546024,46.4557195,France
Villard-de-Lans,"(5.563581928162698, 45.051221749999996)",France,5.563581928162698,45.05122175,France
Bayonne,"(-1.475099, 43.4933379)",France,-1.475099,43.4933379,France
Saint-Hilaire-du-Harcouët,"(-1.085461778865405, 48.5714837)",France,-1.085461778865405,48.5714837,France
Toulon,"(5.9304919, 43.1257311)",France,5.9304919,43.1257311,France
Aubenas,"(4.3975879349808835, 44.61059285)",France,4.397587934980884,44.61059285,France
Cluses,"(6.5804218, 46.0603171)",France,6.5804218,46.0603171,France
Pont l'Evêque,"(2.9880799, 49.5643305)",France,2.9880799,49.5643305,France
Commercy,"(5.5914753, 48.763203)",France,5.5914753,48.763203,France
Nice,"(7.2683912, 43.7009358)",France,7.2683912,43.7009358,France
Barcelona ,"(2.1774322, 41.3828939)",España,2.1774322,41.3828939,Spain
Vesoul,"(6.1544694, 47.6197395)",France,6.1544694,47.6197395,France
Montgeron,"(2.4605107, 48.7038873)",France,2.4605107,48.7038873,France
Perros-Guirec,"(-3.4394662, 48.8151133)",France,-3.4394662,48.8151133,France
Saint-Quentin-en-Yvelines,"(2.015952118728746, 48.7818613)",France,2.015952118728746,48.7818613,France
Châlons-sur-Marne,"(4.3628851, 48.9566218)",France,4.3628851,48.9566218,France
Dole,"(5.4925463, 47.0921047)",France,5.4925463,47.0921047,France
Morzine-Avoriaz,"(6.7702857, 46.1925439)",France,6.7702857,46.1925439,France
Dôle,"(5.4925463, 47.0921047)",France,5.4925463,47.0921047,France
Saint Grégoire,"(-1.685398, 48.1524129)",France,-1.685398,48.1524129,France
Hyères,"(6.1301614, 43.1202573)",France,6.1301614,43.1202573,France
Font-Romeu-Odeillo-Via,"(2.0416766, 42.4965705)",France,2.0416766,42.4965705,France
Bourg-Madame,"(1.9434203, 42.4347431)",France,1.9434203,42.4347431,France
Renazé,"(-1.0557842, 47.793333)",France,-1.0557842,47.793333,France
Mons,"(3.951958, 50.4549568)",België / Belgique / Belgien,3.951958,50.4549568,Belgium
Créteil,"(2.4530731, 48.7771486)",France,2.4530731,48.7771486,France
Felsberg,"(9.477555, 46.8460537)",Schweiz/Suisse/Svizzera/Svizra,9.477555,46.8460537,Switzerland
Circuit Zolder,"(5.257665697426884, 50.990236949999996)",België / Belgique / Belgien,5.257665697426884,50.99023695,Belgium
Aurillac,"(2.4433101, 44.9285441)",France,2.4433101,44.9285441,France
Corbeil-Essonnes,"(2.4818087, 48.6137734)",France,2.4818087,48.6137734,France
Martigny,"(4.1375, 49.8597222)",France,4.1375,49.8597222,France
Fromentine,"(-2.1366623, 46.8896706)",France,-2.1366623,46.8896706,France
Limoges,"(1.2644847, 45.8354243)",France,1.2644847,45.8354243,France
Saint-Julien-en-Genevois,"(6.0812467, 46.1444789)",France,6.0812467,46.1444789,France
Draguignan,"(6.4627333, 43.5374662)",France,6.4627333,43.5374662,France
Brive,"(5.7977896, 46.3738887)",France,5.7977896,46.3738887,France
Champagnole,"(5.9083581, 46.7456049)",France,5.9083581,46.7456049,France
Montpellier,"(3.8767337, 43.6112422)",France,3.8767337,43.6112422,France
 Brighton,"(-0.12693017575934035, 50.8389149)",United Kingdom,-0.1269301757593403,50.8389149,United Kingdom
Villeneuve-sur-Lot,"(0.7046455, 44.4056615)",France,0.7046455,44.4056615,France
Sainte-Foy-la-Grande,"(0.214969, 44.8416496)",France,0.214969,44.8416496,France
Douai,"(3.078171805106893, 50.3799863)",France,3.078171805106893,50.3799863,France
Cologne,"(6.959974, 50.938361)",Deutschland,6.959974,50.938361,Germany
Geneva,"(6.1466014, 46.2017559)",Schweiz/Suisse/Svizzera/Svizra,6.1466014,46.2017559,Switzerland
Val d'Isère,"(6.9804421, 45.4498666)",France,6.9804421,45.4498666,France
Lyon,"(4.8320114, 45.7578137)",France,4.8320114,45.7578137,France
Lézat-sur-Lèze,"(1.34623, 43.2773)",France,1.34623,43.2773,France
Chaumeil,"(1.8808583, 45.4555541)",France,1.8808583,45.4555541,France
Besse,"(6.16986, 45.0714767)",France,6.16986,45.0714767,France
Pamplona,"(-1.6442556, 42.8184538)",España,-1.6442556,42.8184538,Spain
Aubagne,"(5.5703031, 43.2924385)",France,5.5703031,43.2924385,France
Narbonne,"(3.0042121, 43.1837661)",France,3.0042121,43.1837661,France
Châtellerault,"(0.545812, 46.8180047)",France,0.545812,46.8180047,France
Martigues,"(5.0548176, 43.4057279)",France,5.0548176,43.4057279,France
Le Lioran,"(2.7503788, 45.0912003)",France,2.7503788,45.0912003,France
Gaillard,"(6.211169, 46.1838437)",France,6.211169,46.1838437,France
Bastogne,"(5.7173386, 50.0023102)",België / Belgique / Belgien,5.7173386,50.0023102,Belgium
Bornem,"(4.238967723449794, 51.09096325)",België / Belgique / Belgien,4.238967723449794,51.09096325,Belgium
Ypres,"(2.891473683275896, 50.85169675)",België / Belgique / Belgien,2.891473683275896,50.85169675,Belgium
Vitré,"(-1.214331, 48.1244503)",France,-1.214331,48.1244503,France
Mulhouse,"(7.3389937, 47.7467233)",France,7.3389937,47.7467233,France
Mülhausen,"(7.3389937, 47.7467233)",France,7.3389937,47.7467233,France
Saint-Dizier,"(4.9473513, 48.6371125)",France,4.9473513,48.6371125,France
Issoire,"(3.2449840737596505, 45.54420155)",France,3.2449840737596505,45.54420155,France
Lavelanet,"(1.8487179, 42.9332121)",France,1.8487179,42.9332121,France
Noirmoutier-en-l'Île,"(-2.2441449, 47.000089)",France,-2.2441449,47.000089,France
Saint-Raphaël,"(1.0747165, 45.3043079)",France,1.0747165,45.3043079,France
Villié-Morgon,"(4.6812724, 46.1612385)",France,4.6812724,46.1612385,France
Marseille,"(5.3699525, 43.2961743)",France,5.3699525,43.2961743,France
Nemours,"(2.6953079, 48.268026)",France,2.6953079,48.268026,France
La Tour-du-Pin,"(5.4424054, 45.5666202)",France,5.4424054,45.5666202,France
Bobigny,"(2.4452231, 48.906387)",France,2.4452231,48.906387,France
Brioude,"(3.3853711, 45.293897)",France,3.3853711,45.293897,France
Thonon-les-Bains,"(6.4779448, 46.3731303)",France,6.4779448,46.3731303,France
L'Isle-Jourdain,"(1.08426252814849, 43.615923050000006)",France,1.08426252814849,43.615923050000006,France
Auray,"(-2.9833718, 47.6664485)",France,-2.9833718,47.6664485,France
Béziers,"(3.2131307, 43.3426562)",France,3.2131307,43.3426562,France
Armentières,"(2.882169, 50.6867281)",France,2.882169,50.6867281,France
Dieppe,"(1.0791444, 49.9246182)",France,1.0791444,49.9246182,France
Altkirch ,"(7.2401542, 47.6238204)",France,7.2401542,47.6238204,France
Finhaut-Émosson,"(6.9358956, 46.0683065)",Schweiz/Suisse/Svizzera/Svizra,6.9358956,46.0683065,Switzerland
Ales,"(8.815632, 39.768245)",Italia,8.815632,39.768245,Italy
Castillon-la-Bataille,"(-0.0450873, 44.8533324)",France,-0.0450873,44.8533324,France
Dunkirk,"(2.3772525, 51.0347708)",France,2.3772525,51.0347708,France
Foix,"(1.6053807, 42.9638998)",France,1.6053807,42.9638998,France
Saint-Jean-de-Monts,"(-2.0588889, 46.7936111)",France,-2.0588889,46.7936111,France
Luçon,"(-1.1645595, 46.4555953)",France,-1.1645595,46.4555953,France
Piau-Engaly,"(0.15861350650914335, 42.78020745)",France,0.1586135065091433,42.78020745,France
Blaye-les-Mines,"(2.1323326, 44.0301194)",France,2.1323326,44.0301194,France
Ax 3 Domaines,"(1.815291863288256, 42.70068245)",France,1.815291863288256,42.70068245,France
Risoul,"(6.6387088, 44.6491889)",France,6.6387088,44.6491889,France
Metz,"(6.1763552, 49.1196964)",France,6.1763552,49.1196964,France
Cuneo,"(7.558136691151624, 44.45807035)",Italia,7.558136691151624,44.45807035,Italy
Val-d'Isère,"(6.9804421, 45.4498666)",France,6.9804421,45.4498666,France
Utah Beach,"(-1.1747033, 49.4156657)",France,-1.1747033,49.4156657,France
Villers-Cotterêts,"(3.0909275, 49.2549479)",France,3.0909275,49.2549479,France
Pornichet,"(-2.3364238, 47.2613293)",France,-2.3364238,47.2613293,France
Mers-les-Bains,"(1.3889703, 50.0656325)",,1.3889703,50.0656325,
Brétigny-sur-Orge,"(2.3075288, 48.6099887)",,2.3075288,48.6099887,
Gex,"(6.0588831, 46.3324378)",,6.0588831,46.3324378,
Arbois,"(5.7727504, 46.9032246)",,5.7727504,46.9032246,
Bourgoin-Jallieu,"(5.2828123, 45.5872259)",,5.2828123,45.5872259,
Sens,"(3.282606, 48.1978559)",,3.282606,48.1978559,
Andorra-Arcalis,"(1.4912605793978895, 42.6271621)",,1.4912605793978897,42.6271621,
Blagnac,"(1.37799, 43.6434)",France,1.37799,43.6434,France
St. Etienne,"(4.3873058, 45.4401467)",France,4.3873058,45.4401467,France
Palaiseau,"(2.2453842, 48.7144587)",France,2.2453842,48.7144587,France
Le Barcarès,"(3.0335243, 42.7946794)",France,3.0335243,42.7946794,France
Perpignan,"(2.8953121, 42.6985304)",France,2.8953121,42.6985304,France
Bron,"(4.9092352, 45.7337532)",France,4.9092352,45.7337532,France
Bourges,"(2.3991583, 47.0811608)",France,2.3991583,47.0811608,France
Machecoul,"(-1.848034198853211, 46.9919694)",France,-1.848034198853211,46.9919694,France
Les Deux Alpes,"(6.1237609, 45.0099949)",France,6.1237609,45.0099949,France
Olonne-sur-Mer,"(-1.7687019, 46.5358685)",France,-1.7687019,46.5358685,France
Sisteron,"(5.9443791, 44.1963467)",France,5.9443791,44.1963467,France
Blain,"(-1.7643647, 47.4755536)",France,-1.7643647,47.4755536,France
St Gervais,"(5.4820229, 45.2022356)",France,5.4820229,45.2022356,France
Abbeville,"(1.8337029, 50.1060835)",France,1.8337029,50.1060835,France
Laval,"(-0.7734022, 48.0706687)",France,-0.7734022,48.0706687,France
Roquefort-sur-Soulzon,"(2.9904721, 43.9761756)",France,2.9904721,43.9761756,France
Annemasse,"(6.2341093, 46.1934005)",France,6.2341093,46.1934005,France
Lans-en-Vercors,"(5.5891386, 45.1277768)",France,5.5891386,45.1277768,France
Saint-Lary-Soulan,"(0.3219538, 42.816936)",France,0.3219538,42.816936,France
Les Orres,"(6.5510313, 44.5140024)",France,6.5510313,44.5140024,France
"Geneva, Switzerland","(6.1466014, 46.2017559)",Schweiz/Suisse/Svizzera/Svizra,6.1466014,46.2017559,Switzerland
Chambord,"(0.608853, 48.8896872)",France,0.608853,48.8896872,France
Cognac,"(-0.3250175, 45.6931647)",France,-0.3250175,45.6931647,France
Chambéry,"(5.9203636, 45.5662672)",France,5.9203636,45.5662672,France
La Caverne du Pont-d'Arc,"(4.4267379292452835, 44.4070526)",France,4.426737929245284,44.4070526,France
Saint-Fargeau,"(3.0722102, 47.6402988)",France,3.0722102,47.6402988,France
Pontoise,"(2.1008067, 49.0508845)",France,2.1008067,49.0508845,France
Cahors,"(1.4364999, 44.4495)",France,1.4364999,44.4495,France
Sedan,"(4.9433409, 49.7033759)",France,4.9433409,49.7033759,France
Bondy,"(2.485074291648317, 48.90374265)",France,2.485074291648317,48.90374265,France
Düsseldorf,"(6.7763137, 51.2254018)",Deutschland,6.7763137,51.2254018,Germany
's-Hertogenbosch,"(5.303116, 51.6889387)",Nederland,5.303116,51.6889387,Netherlands
Vouvray,"(0.7998446, 47.4136687)",France,0.7998446,47.4136687,France
Semnoz,"(6.1044437, 45.8843289)",France,6.1044437,45.8843289,France
Étampes,"(2.1614464, 48.4344621)",France,2.1614464,48.4344621,France
L'Alpe d'Huez,"(6.0699443, 45.092401)",France,6.0699443,45.092401,France
Alençon,"(0.0911374, 48.4312059)",France,0.0911374,48.4312059,France
Waregem - Compiègne,,,,,
Ruelle-sur-Touvre,"(0.2186769, 45.6764688)",France,0.2186769,45.6764688,France
Saint-Quentin,"(3.2876843, 49.8465253)",France,3.2876843,49.8465253,France
Tallard,"(6.0553735, 44.4634515)",France,6.0553735,44.4634515,France
Eurotunnel,"(1.8090037, 50.9344866)",France,1.8090037,50.9344866,France
Béthune,"(2.6418611281799524, 50.52987735)",France,2.6418611281799524,50.52987735,France
Molenbeek,"(4.338636, 50.8545959)",België / Belgique / Belgien,4.338636,50.8545959,Belgium
Brussels,"(4.351697, 50.8465573)",België / Belgique / Belgien,4.351697,50.8465573,Belgium
Mazamet,"(2.3764363, 43.4902317)",France,2.3764363,43.4902317,France
Digne,"(6.2351431, 44.0918144)",France,6.2351431,44.0918144,France
Le Tréport,"(1.3827656, 50.0591099)",France,1.3827656,50.0591099,France
Roscoff,"(-3.9828983, 48.7255816)",France,-3.9828983,48.7255816,France
Megève,"(6.617932, 45.8567089)",France,6.617932,45.8567089,France
Montreuil,"(1.7631125, 50.4638918)",France,1.7631125,50.4638918,France
Luz Ardiden,"(-0.058821, 42.8850872)",France,-0.058821,42.8850872,France
Beauraing,"(4.9567402, 50.1101971)",België / Belgique / Belgien,4.9567402,50.1101971,Belgium
Montereau-Fault-Yonne,"(2.9557006, 48.3849647)",France,2.9557006,48.3849647,France
Régnié-Durette,"(4.6420871, 46.1384747)",France,4.6420871,46.1384747,France
Tarascon-sur-Ariège,"(1.6067586, 42.8458016)",France,1.6067586,42.8458016,France
Blois,"(1.3337639, 47.5876861)",France,1.3337639,47.5876861,France
Chantilly,"(2.47578765999255, 49.1799586)",France,2.47578765999255,49.1799586,France
Aulnay-sous-Bois,"(2.499789, 48.934231)",France,2.499789,48.934231,France
Lille,"(3.0635282, 50.6365654)",France,3.0635282,50.6365654,France
Boulogne-Billancourt,"(2.240206, 48.8356649)",France,2.240206,48.8356649,France
Lorient,"(-3.3660907, 47.7477336)",France,-3.3660907,47.7477336,France
Seurre,"(5.1487861, 46.9995787)",France,5.1487861,46.9995787,France
Quimper,"(-4.1024782, 47.9960325)",France,-4.1024782,47.9960325,France
Luz-Saint-Sauveur,"(-0.0043418, 42.8721142)",France,-0.0043418,42.8721142,France
Agde,"(3.4771629, 43.3134787)",France,3.4771629,43.3134787,France
Saint-Amand-Montrond,"(2.5046503, 46.7227062)",France,2.5046503,46.7227062,France
Saint-Jean-de-Maurienne,"(6.3453329, 45.2775258)",France,6.3453329,45.2775258,France
Angoulême,"(0.1576745, 45.6512748)",France,0.1576745,45.6512748,France
Corrèze,"(1.8176424406120555, 45.342904700000005)",France,1.817642440612056,45.342904700000005,France
Morzine Avoriaz,"(6.7702857, 46.1925439)",France,6.7702857,46.1925439,France
La Roche sur Yon,"(-1.4269698, 46.6705431)",France,-1.4269698,46.6705431,France
Pra-Loup,"(6.6025028, 44.3701507)",France,6.6025028,44.3701507,France
Sarrebourg,"(7.0557352, 48.734239)",France,7.0557352,48.734239,France
La Chaux-de-Fonds,"(6.8325778, 47.1031321)",Schweiz/Suisse/Svizzera/Svizra,6.8325778,47.1031321,Switzerland
Montlhéry,"(2.269244, 48.6406023)",France,2.269244,48.6406023,France
Le Perreux-sur-Marne,"(2.5077111, 48.840627)",France,2.5077111,48.840627,France
Saint-Brieuc,"(-2.7603283, 48.5141134)",France,-2.7603283,48.5141134,France
Roubaix,"(3.1741734, 50.6915893)",France,3.1741734,50.6915893,France
Neuville-de-Poitou,"(0.2450626, 46.6852065)",France,0.2450626,46.6852065,France
Rambouillet,"(1.819207, 48.6452851)",France,1.819207,48.6452851,France
Sint Willebrord,"(4.5918729, 51.5507046)",Nederland,4.5918729,51.5507046,Netherlands
La Plagne,"(6.704912252907272, 45.50429855)",France,6.704912252907272,45.50429855,France
Épernay,"(3.9528655, 49.042561)",France,3.9528655,49.042561,France
Brignoles,"(6.0616452, 43.4064401)",France,6.0616452,43.4064401,France
Gourette,"(-0.32912949983056355, 42.9438107)",France,-0.3291294998305635,42.9438107,France
Pornic,"(-2.1040102, 47.1152695)",France,-2.1040102,47.1152695,France
Cork,"(-8.4654674, 51.897077)",Éire / Ireland,-8.4654674,51.897077,Ireland
Autun,"(4.2989478, 46.9510313)",France,4.2989478,46.9510313,France
Pont-Audemer,"(0.5333167486137402, 49.34758065)",France,0.5333167486137402,49.34758065,France
La Baule,"(-2.3951595, 47.2843726)",France,-2.3951595,47.2843726,France
Tomblaine,"(6.2106707, 48.6864409)",France,6.2106707,48.6864409,France
Livarot,"(0.1519688, 49.0053166)",France,0.1519688,49.0053166,France
Sanremo,"(7.7748827, 43.8198253)",Italia,7.7748827,43.8198253,Italy
Cauterets,"(-0.114546, 42.8893451)",France,-0.114546,42.8893451,France
Lourdes,"(-0.0464975, 43.0940904)",France,-0.0464975,43.0940904,France
Val Thorens,"(6.5822693, 45.2979109)",France,6.5822693,45.2979109,France
Le Monêtier-les-Bains,"(6.5098787, 44.9760855)",France,6.5098787,44.9760855,France
Privas,"(4.5986733, 44.7352708)",France,4.5986733,44.7352708,France
Longjumeau,"(2.2953297, 48.6943793)",France,2.2953297,48.6943793,France
Vitoria-Gasteiz,"(-2.6724025, 42.8465088)",España,-2.6724025,42.8465088,Spain
Verdun,"(5.3867277, 49.1589278)",France,5.3867277,49.1589278,France
Saint-Pol-de-Léon,"(-3.9868641, 48.6849601)",France,-3.9868641,48.6849601,France
Lisieux,"(0.2255168, 49.1460831)",France,0.2255168,49.1460831,France
Dinard,"(-2.0580178, 48.6320379)",France,-2.0580178,48.6320379,France
Alfortville,"(2.4197113, 48.8051624)",France,2.4197113,48.8051624,France
Aix les Bains,"(5.9146362, 45.6886292)",France,5.9146362,45.6886292,France
Meyrignac-l'Église,"(1.8520404, 45.4008292)",France,1.8520404,45.4008292,France
Vichy,"(3.4203712, 46.1239268)",France,3.4203712,46.1239268,France
Andorra,"(1.5732033, 42.5407167)",ndorra,1.5732033,42.5407167,Andorra
Chamonix,"(6.934005265146571, 45.92956455)",France,6.934005265146571,45.92956455,France
Saint-Germain-en-Laye,"(2.0917742569617808, 48.93560465)",France,2.0917742569617808,48.93560465,France
Saint-Étienne,"(4.3873058, 45.4401467)",France,4.3873058,45.4401467,France
Saint-Omer,"(2.2534183, 50.7515771)",France,2.2534183,50.7515771,France
Plumelec,"(-2.6396508, 47.8378469)",France,-2.6396508,47.8378469,France
Saint-Priest,"(4.54685, 44.7177)",France,4.54685,44.7177,France
Aix-les-Bains,"(5.9146362, 45.6886292)",France,5.9146362,45.6886292,France
Montceau-les-Mines,"(4.3631681, 46.6740455)",France,4.3631681,46.6740455,France
Zeeland,"(3.7028061, 51.4162975)",Nederland,3.7028061,51.4162975,Netherlands
Vittel,"(5.9418851, 48.2020717)",France,5.9418851,48.2020717,France
Granville,"(-1.5959213, 48.8376284)",France,-1.5959213,48.8376284,France
Gérardmer La Mauselaine,"(6.8882717, 48.0592543)",France,6.8882717,48.0592543,France
Visé,"(5.6936397, 50.7347797)",België / Belgique / Belgien,5.6936397,50.7347797,Belgium
Veurey,"(5.61271, 45.2722019)",France,5.61271,45.2722019,France
Vizille,"(5.7715863, 45.0758358)",France,5.7715863,45.0758358,France
Langon,"(-0.2449274, 44.5530659)",France,-0.2449274,44.5530659,France
Romans-sur-Isère,"(5.0528681, 45.0458886)",France,5.0528681,45.0458886,France
Arpajon-sur-Cère,"(2.4570176, 44.9034428)",France,2.4570176,44.9034428,France
Castelsarrasin,"(1.1072875, 44.0395151)",France,1.1072875,44.0395151,France
Marennes,"(-1.1127949839974698, 45.8224965)",France,-1.1127949839974698,45.8224965,France
Les Sables-d'Olonne,"(-1.7924575344192666, 46.5002031)",France,-1.7924575344192666,46.5002031,France
Chassieu,"(4.9681796, 45.7422756)",France,4.9681796,45.7422756,France
Concarneau,"(-3.9223889, 47.8757017)",France,-3.9223889,47.8757017,France
Villars-les-Dombes,"(5.029519, 46.0014072)",France,5.029519,46.0014072,France
Miramas,"(5.0025809, 43.582733)",France,5.0025809,43.582733,France
Spa,"(5.8627569, 50.4920654)",België / Belgique / Belgien,5.8627569,50.4920654,Belgium
Morlaix,"(-3.8331972, 48.5824932)",France,-3.8331972,48.5824932,France
Saint-Paul-Trois-Châteaux,"(4.7707325, 44.3475554)",France,4.7707325,44.3475554,France
Chamrousse,"(5.893161878703198, 45.1171487)",France,5.893161878703198,45.1171487,France
Dinant,"(4.9130588, 50.2591813)",België / Belgique / Belgien,4.9130588,50.2591813,Belgium
Orange,"(-117.8704931, 33.7500378)",United States,-117.8704931,33.7500378,United States
Orchies,"(3.2425313, 50.4745024)",France,3.2425313,50.4745024,France
